STARLINK-35916          
1 66504U 25263V   26197.48055741  .00004278  00000+0  16482-3 0  9992
2 66504  43.0025 347.0291 0001803 261.7096  98.3552 15.27593755 38558
STARLINK-34766          
1 66505U 25263W   26196.78349099  .00012226  00000+0  45302-3 0  9992
2 66505  43.0023 346.9023 0002004 278.1930  81.8695 15.27583509 38495
STARLINK-34765          
1 66506U 25263X   26197.46691023  .00007899  00000+0  29621-3 0  9992
2 66506  43.0013 343.4370 0001369 272.5746  87.4949 15.27587162 38592
STARLINK-34767          
1 66507U 25263Y   26197.41951439  .00009322  00000+0  34777-3 0  9999
2 66507  42.9990 343.9425 0001511 267.9313  92.1366 15.27586764 38580
STARLINK-35608          
1 66508U 25263Z   26197.40794385  .00005007  00000+0  19132-3 0  9998
2 66508  43.0019 343.8526 0001811 269.2904  90.7740 15.27585760 38585
STARLINK-35598          
1 66509U 25263AA  26197.43109364  .00011535  00000+0  42816-3 0  9997
2 66509  43.0010 344.0256 0001557 264.6679  95.3995 15.27571123 38586
STARLINK-35600          
1 66510U 25263AB  26197.42722873  .00008227  00000+0  30824-3 0  9994
2 66510  42.9993 343.9977 0000786 226.0899 133.9887 15.27571028 38586
STARLINK-35444          
1 66511U 25263AC  26197.45662875  .00008044  00000+0  30144-3 0  9995
2 66511  43.0030 343.3511 0001951 264.5931  95.4698 15.27587420 38594
STARLINK-35366          
1 66512U 25263AD  26197.47075897  .00006653  00000+0  25102-3 0  9992
2 66512  43.0023 343.4559 0001897 254.2842 105.7800 15.27586378 38597
STARLINK-35692          
1 66513U 25263AE  26197.41307951  .00006953  00000+0  26190-3 0  9997
2 66513  43.0073 343.8911 0004331 288.4060  71.6321 15.27585157 38588
STARLINK-35924          
1 66516U 25265A   26197.48233342  .00010634  00000+0  39521-3 0  9994
2 66516  43.0026 270.3307 0002192 279.7521  80.3083 15.27593709 36818
STARLINK-35937          
1 66517U 25265B   26197.59911535  .00005500  00000+0  20920-3 0  9993
2 66517  43.0016 270.3488 0001766 275.1350  84.9300 15.27587064 36824
STARLINK-35962          
1 66518U 25265C   26197.26318936  .00009988  00000+0  37188-3 0  9992
2 66518  42.9980 272.1210 0001032 214.4983 145.5802 15.27590219 36771
STARLINK-35931          
1 66519U 25265D   26197.50802974  .00006601  00000+0  24910-3 0  9998
2 66519  42.9994 270.5155 0001193 277.8617  82.2099 15.27590026 36818
STARLINK-35952          
1 66520U 25265E   26197.51702398  .00009815  00000+0  36553-3 0  9996
2 66520  43.0036 270.5903 0002076 281.9020  78.1598 15.27595176 36814
STARLINK-35915          
1 66521U 25265F   26197.57213008  .00010637  00000+0  39529-3 0  9998
2 66521  43.0020 270.1411 0002107 283.2084  76.8532 15.27596485 36826
STARLINK-35946          
1 66522U 25265G   26197.52216535  .00009745  00000+0  36299-3 0  9991
2 66522  43.0025 270.6259 0001869 287.5986  72.4662 15.27596554 36811
STARLINK-35969          
1 66523U 25265H   26197.56313769  .00011323  00000+0  42017-3 0  9993
2 66523  42.9988 270.0656 0001548 277.2437  82.8239 15.27594606 36826
STARLINK-35687          
1 66524U 25265J   26197.59654334  .00012530  00000+0  46376-3 0  9996
2 66524  43.0048 270.3329 0002792 287.1419  72.9127 15.27601748 36820
STARLINK-35975          
1 66525U 25265K   26197.56442055  .00006461  00000+0  24403-3 0  9992
2 66525  42.9999 270.0815 0001638 274.4370  85.6294 15.27588989 36821
STARLINK-35932          
1 66526U 25265L   26197.56185087  .00008970  00000+0  33494-3 0  9999
2 66526  42.9993 270.0594 0001554 282.8788  77.1890 15.27595490 36826
STARLINK-35935          
1 66527U 25265M   26197.25419565  .00005562  00000+0  21145-3 0  9991
2 66527  43.0007 272.0504 0001389 270.6844  89.3848 15.27586339 36776
STARLINK-35928          
1 66528U 25265N   26197.22849532  .00006159  00000+0  23309-3 0  9997
2 66528  42.9991 271.8535 0001092 266.5339  93.5388 15.27585850 36775
STARLINK-35933          
1 66529U 25265P   26197.59269000  .00007491  00000+0  28135-3 0  9996
2 66529  43.0026 270.2997 0001638 273.6836  86.3828 15.27591829 36827
STARLINK-35961          
1 66530U 25265Q   26197.25162411  .00005820  00000+0  22079-3 0  9994
2 66530  42.9977 272.0322 0000841 240.2010 119.8758 15.27586186 36771
STARLINK-35960          
1 66531U 25265R   26197.28103202  .00010281  00000+0  38250-3 0  9996
2 66531  42.9978 271.3931 0001381 261.3877  98.6818 15.27588316 36785
STARLINK-35914          
1 66532U 25265S   26197.25290989  .00005509  00000+0  20951-3 0  9999
2 66532  42.9994 272.0413 0000968 252.9475 107.1271 15.27585810 36771
STARLINK-35707          
1 66533U 25265T   26197.56827463  .00009503  00000+0  35422-3 0  9994
2 66533  43.0005 270.1071 0001626 277.1467  82.9200 15.27596174 36821
STARLINK-35976          
1 66534U 25265U   26197.59525869  .00007350  00000+0  27624-3 0  9996
2 66534  43.0030 270.3149 0001982 284.6973  75.3659 15.27592250 36823
STARLINK-35514          
1 66535U 25265V   26197.52602254  .00008481  00000+0  31727-3 0  9999
2 66535  43.0044 270.6555 0002354 294.7462  65.3145 15.27589020 36811
