OBJECT_NAME,OBJECT_ID,EPOCH,MEAN_MOTION,ECCENTRICITY,INCLINATION,RA_OF_ASC_NODE,ARG_OF_PERICENTER,MEAN_ANOMALY,EPHEMERIS_TYPE,CLASSIFICATION_TYPE,NORAD_CAT_ID,ELEMENT_SET_NO,REV_AT_EPOCH,BSTAR,MEAN_MOTION_DOT,MEAN_MOTION_DDOT
STARLINK-35916,2025-263V,2026-07-16T11:32:00.160224,15.27593755,.00018036,43.0025,347.0291,261.7096,98.3552,0,U,66504,999,3855,.16482087E-3,.4278E-4,0
STARLINK-34766,2025-263W,2026-07-15T18:48:13.621536,15.27583509,.00020048,43.0023,346.9023,278.1930,81.8695,0,U,66505,999,3849,.45301881E-3,.12226E-3,0
STARLINK-34765,2025-263X,2026-07-16T11:12:21.043872,15.27587162,.00013691,43.0013,343.4370,272.5746,87.4949,0,U,66506,999,3859,.29620891E-3,.7899E-4,0
STARLINK-34767,2025-263Y,2026-07-16T10:04:06.043296,15.27586764,.00015111,42.9990,343.9425,267.9313,92.1366,0,U,66507,999,3858,.34776747E-3,.9322E-4,0
STARLINK-35608,2025-263Z,2026-07-16T09:47:26.348640,15.27585760,.00018117,43.0019,343.8526,269.2904,90.7740,0,U,66508,999,3858,.19132479E-3,.5007E-4,0
STARLINK-35598,2025-263AA,2026-07-16T10:20:46.490496,15.27571123,.0001557,43.0010,344.0256,264.6679,95.3995,0,U,66509,999,3858,.42816195E-3,.11535E-3,0
STARLINK-35600,2025-263AB,2026-07-16T10:15:12.562272,15.27571028,.00007862,42.9993,343.9977,226.0899,133.9887,0,U,66510,999,3858,.30823645E-3,.8227E-4,0
STARLINK-35444,2025-263AC,2026-07-16T10:57:32.724000,15.27587420,.00019516,43.0030,343.3511,264.5931,95.4698,0,U,66511,999,3859,.30143911E-3,.8044E-4,0
STARLINK-35366,2025-263AD,2026-07-16T11:17:53.575008,15.27586378,.00018974,43.0023,343.4559,254.2842,105.7800,0,U,66512,999,3859,.25102018E-3,.6653E-4,0
STARLINK-35692,2025-263AE,2026-07-16T09:54:50.069664,15.27585157,.00043312,43.0073,343.8911,288.4060,71.6321,0,U,66513,999,3858,.26190061E-3,.6953E-4,0
STARLINK-35924,2025-265A,2026-07-16T11:34:33.607488,15.27593709,.0002192,43.0026,270.3307,279.7521,80.3083,0,U,66516,999,3681,.39521422E-3,.10634E-3,0
STARLINK-35937,2025-265B,2026-07-16T14:22:43.566240,15.27587064,.00017662,43.0016,270.3488,275.1350,84.9300,0,U,66517,999,3682,.20919766E-3,.55E-4,0
STARLINK-35962,2025-265C,2026-07-16T06:18:59.560704,15.27590219,.00010326,42.9980,272.1210,214.4983,145.5802,0,U,66518,999,3677,.37187503E-3,.9988E-4,0
STARLINK-35931,2025-265D,2026-07-16T12:11:33.769536,15.27590026,.00011936,42.9994,270.5155,277.8617,82.2099,0,U,66519,999,3681,.24909591E-3,.6601E-4,0
STARLINK-35952,2025-265E,2026-07-16T12:24:30.871872,15.27595176,.00020765,43.0036,270.5903,281.9020,78.1598,0,U,66520,999,3681,.36553431E-3,.9815E-4,0
STARLINK-35915,2025-265F,2026-07-16T13:43:52.038912,15.27596485,.00021071,43.0020,270.1411,283.2084,76.8532,0,U,66521,999,3682,.39528738E-3,.10637E-3,0
STARLINK-35946,2025-265G,2026-07-16T12:31:55.086240,15.27596554,.00018696,43.0025,270.6259,287.5986,72.4662,0,U,66522,999,3681,.3629909E-3,.9745E-4,0
STARLINK-35969,2025-265H,2026-07-16T13:30:55.096416,15.27594606,.00015488,42.9988,270.0656,277.2437,82.8239,0,U,66523,999,3682,.42017077E-3,.11323E-3,0
STARLINK-35687,2025-265J,2026-07-16T14:19:01.344576,15.27601748,.00027925,43.0048,270.3329,287.1419,72.9127,0,U,66524,999,3682,.46376493E-3,.1253E-3,0
STARLINK-35975,2025-265K,2026-07-16T13:32:45.935520,15.27588989,.00016382,42.9999,270.0815,274.4370,85.6294,0,U,66525,999,3682,.24402899E-3,.6461E-4,0
STARLINK-35932,2025-265L,2026-07-16T13:29:03.915168,15.27595490,.00015546,42.9993,270.0594,282.8788,77.1890,0,U,66526,999,3682,.33494435E-3,.897E-4,0
STARLINK-35935,2025-265M,2026-07-16T06:06:02.504160,15.27586339,.00013891,43.0007,272.0504,270.6844,89.3848,0,U,66527,999,3677,.21144747E-3,.5562E-4,0
STARLINK-35928,2025-265N,2026-07-16T05:29:01.995648,15.27585850,.00010925,42.9991,271.8535,266.5339,93.5388,0,U,66528,999,3677,.23309025E-3,.6159E-4,0
STARLINK-35933,2025-265P,2026-07-16T14:13:28.416000,15.27591829,.00016384,43.0026,270.2997,273.6836,86.3828,0,U,66529,999,3682,.28134945E-3,.7491E-4,0
STARLINK-35961,2025-265Q,2026-07-16T06:02:20.323104,15.27586186,.00008414,42.9977,272.0322,240.2010,119.8758,0,U,66530,999,3677,.22078954E-3,.582E-4,0
STARLINK-35960,2025-265R,2026-07-16T06:44:41.166528,15.27588316,.00013816,42.9978,271.3931,261.3877,98.6818,0,U,66531,999,3678,.3825013E-3,.10281E-3,0
STARLINK-35914,2025-265S,2026-07-16T06:04:11.414496,15.27585810,.00009686,42.9994,272.0413,252.9475,107.1271,0,U,66532,999,3677,.2095102E-3,.5509E-4,0
STARLINK-35707,2025-265T,2026-07-16T13:38:18.928032,15.27596174,.00016261,43.0005,270.1071,277.1467,82.9200,0,U,66533,999,3682,.35422483E-3,.9503E-4,0
STARLINK-35976,2025-265U,2026-07-16T14:17:10.350816,15.27592250,.00019825,43.0030,270.3149,284.6973,75.3659,0,U,66534,999,3682,.27624331E-3,.735E-4,0
STARLINK-35514,2025-265V,2026-07-16T12:37:28.347456,15.27589020,.00023545,43.0044,270.6555,294.7462,65.3145,0,U,66535,999,3681,.31726897E-3,.8481E-4,0
